satname,norad_id,inclination_deg,eccentricity,mean_motion_rev_per_day,perigee_km,apogee_km,l1,l2
STARLINK-1008,44714,53.0573,0.0001886,15.06386346,545.9472771672972,548.5595344283647,1 44714U 19074B   25337.17021156 -.00000902  00000+0 -41636-4 0  9990,2 44714  53.0573 259.9087 0001886  85.6858 274.4346 15.06386346334202
STARLINK-1011,44717,53.0372,0.0004267,16.21559543,212.50752513269254,218.13438215033057,1 44717U 19074E   25337.76080104  .02238003  11849-4  99614-3 0  9997,2 44717  53.0372 217.6014 0004267 222.8949 137.1757 16.21559543334845
STARLINK-1012,44718,53.0553,0.0001327,15.06391935,546.3172790782446,548.155273145725,1 44718U 19074F   25337.47982586  .00009763  00000+0  67357-3 0  9999,2 44718  53.0553 258.5189 0001327  85.9218 274.1923 15.06391935334247
STARLINK-1017,44723,53.0489,0.0006198,15.17369054,509.52405420068317,518.0672939434626,1 44723U 19074L   25337.04345101  .00029902  00000+0  14882-2 0  9995,2 44723  53.0489 254.8396 0006198  64.7106 295.4529 15.17369054334261
STARLINK-1019,44724,53.054,0.000442,15.5527507,398.35661803191215,404.3496873268814,1 44724U 19074M   25337.74974714  .00133766  00000+0  19141-2 0  9998,2 44724  53.0540 248.9293 0004420 112.0279 248.1201 15.55275070334408
STARLINK-1020,44725,53.0557,0.0001479,15.06393312,546.2077936875176,548.256317854215,1 44725U 19074N   25337.14993180  .00002472  00000+0  18480-3 0  9996,2 44725  53.0557 280.0020 0001479  95.9327 264.1831 15.06393312333914
STARLINK-1031,44736,53.0496,0.0007611,15.56673492,392.1355739827577,402.449132544295,1 44736U 19074Z   25337.44954052  .00127824  00000+0  17373-2 0  9994,2 44736  53.0496 237.3865 0007611  59.1811 300.9948 15.56673492334558
STARLINK-1036,44741,53.0544,0.0001434,15.06392933,546.2401192709485,548.2263154492875,1 44741U 19074AE  25337.24577169  .00002652  00000+0  19688-3 0  9991,2 44741  53.0544 279.5674 0001434  91.1687 268.9466 15.06392933333930
STARLINK-1039,44744,53.0504,0.0002189,15.14845676,519.9367953079845,522.9574332332122,1 44744U 19074AH  25337.27877510  .00018645  00000+0  10048-2 0  9999,2 44744  53.0504 295.6288 0002189  10.4307 349.6731 15.14845676333714
STARLINK-1042,44747,53.0455,0.0002919,15.44811119,429.94525865759624,433.9209775925574,1 44747U 19074AL  25337.34480682  .00024631  00000+0  52472-3 0  9990,2 44747  53.0455 195.2570 0002919 163.5366 196.5735 15.44811119335158
STARLINK-1043,44748,53.0553,0.0002069,15.43139558,435.44008332348494,438.2601249871841,1 44748U 19074AM  25337.19218656  .00055405  00000+0  12322-2 0  9996,2 44748  53.0553 296.7287 0002069  90.8177 269.3065 15.43139558333699
STARLINK-1046,44751,53.0556,0.0001468,15.06398292,546.2001507804562,548.2334346539974,1 44751U 19074AQ  25337.29921101  .00003641  00000+0  26323-3 0  9999,2 44751  53.0556 299.3280 0001468 104.5449 255.5703 15.06398292333669
STARLINK-1047,44752,53.0708,7.46e-05,15.30136196,474.89430900568095,475.9168575591075,1 44752U 19074AR  25337.42699748  .00012337  00000+0  42877-3 0  9998,2 44752  53.0708 234.8659 0000746 296.8199  63.2725 15.30136196334599
STARLINK-1048,44753,53.0547,0.0001493,15.06395526,546.1913135509085,548.259226724771,1 44753U 19074AS  25337.19232463  .00006911  00000+0  48246-3 0  9997,2 44753  53.0547 259.8088 0001493  90.8169 269.2991 15.06395526334201
STARLINK-1053,44758,53.0375,0.0004771,15.65587885,368.32826486686645,374.7688148089792,1 44758U 19074AX  25337.79170733  .00083340  00000+0  81045-3 0  9994,2 44758  53.0375 201.9554 0004771 141.8027 218.3326 15.65587885335083
STARLINK-1060,44765,53.0499,0.0009206,15.73113368,343.8112490074136,356.1991043831449,1 44765U 19074BE  25337.91670139  .00112662  00000+0  79748-3 0  9998,2 44765  53.0499 246.4625 0009206 103.0841 271.7970 15.73113368  5917
STARLINK-1063,44768,53.0544,0.0001616,15.06394497,546.1092848395429,548.3475629445447,1 44768U 19074BH  25337.81893242  .00001798  00000+0  13960-3 0  9993,2 44768  53.0544 296.9996 0001616  83.8084 276.3089 15.06394497333751
STARLINK-1067,44771,53.0555,0.0001557,15.06388239,546.1693215610685,548.3258863267374,1 44771U 19074BL  25337.27709595  .00002580  00000+0  19212-3 0  9990,2 44771  53.0555 299.4324 0001557 103.4246 256.6917 15.06388239333661
STARLINK-1068,44772,53.0561,0.0001731,15.06400978,546.0097831942321,548.4073378272815,1 44772U 19074BM  25337.26788785  .00022907  00000+0  15517-2 0  9996,2 44772  53.0561 279.4715 0001731 105.9358 254.1822 15.06400978333939
STARLINK-1112,44925,53.0476,0.0005671,15.61252031,380.2045913671718,387.8742518645686,1 44925U 20001M   25337.91670139  .00025270  00000+0  29754-3 0  9998,2 44925  53.0476   2.1813 0005671 353.2210 136.9228 15.61252031  5924
STARLINK-1114,44927,53.0548,0.0001329,15.06392375,546.3145456344782,548.1553094928258,1 44927U 20001P   25337.50562823  .00003027  00000+0  22203-3 0  9993,2 44927  53.0548  58.4076 0001329  66.3913 293.7215 15.06392375325354
STARLINK-1123,44930,53.0561,0.000135,15.06393895,546.2953443658798,548.1651935284963,1 44930U 20001S   25337.52036389 -.00000143  00000+0  93072-5 0  9993,2 44930  53.0561  58.3403 0001350  91.6371 268.4773 15.06393895325355
STARLINK-1144,44933,53.0416,0.0001396,15.70579278,356.30009824582885,358.18061560388196,1 44933U 20001V   25337.91670139  .00217601  00000+0  16918-2 0  9995,2 44933  53.0416 337.2801 0001396 134.9475 219.0582 15.70579278  5991
STARLINK-1094,44941,53.0561,0.0001426,15.06391176,546.2510437985075,548.2261609202997,1 44941U 20001AD  25337.46692125  .00000513  00000+0  53356-4 0  9994,2 44941  53.0561  38.5829 0001426 100.6861 259.4288 15.06391176325629
STARLINK-1122,44949,53.0552,0.0001112,15.06390678,546.4700267362914,548.0102306097087,1 44949U 20001AM  25337.48903447 -.00000065  00000+0  14515-4 0  9993,2 44949  53.0552  38.4770 0001112  88.8609 271.2507 15.06390678325622
STARLINK-1080,44961,53.0551,0.0001529,15.06388713,546.1872600998331,548.3050422674651,1 44961U 20001AZ  25337.48719571 -.00001529  00000+0 -83810-4 0  9991,2 44961  53.0551  18.4892 0001529  94.7389 265.3774 15.06388713325910
STARLINK-1090,44968,53.0558,0.0001443,15.06394959,546.2276778939822,548.2263379466685,1 44968U 20001BG  25337.42453211  .00000397  00000+0  45584-4 0  9994,2 44968  53.0558  18.7710 0001443  95.3086 264.8067 15.06394959325909
STARLINK-1107,44972,53.0,0.0007553,15.9294484,289.007529325042,299.08653052064346,1 44972U 20001BL  25337.91670139  .00776118  26190-3  21828-2 0  9999,2 44972  53.0000 273.6354 0007553 121.6283 201.0406 15.92944840  6037
STARLINK-1132,45044,53.0551,0.000149,15.06394289,546.1971818428956,548.2609409291872,1 45044U 20006A   25337.71572821  .00002161  00000+0  16396-3 0  9995,2 45044  53.0551 337.4651 0001490  86.9025 273.2134 15.06394289322276
STARLINK-1131,45047,53.056,0.000138,15.06397818,546.2625464382099,548.1739444859568,1 45047U 20006D   25337.75817425  .00008310  00000+0  57613-3 0  9993,2 45047  53.0560 357.8138 0001380  99.1321 260.9824 15.06397818321996
STARLINK-1134,45048,53.0374,0.0005216,15.31482468,467.81581103903954,474.96123606520905,1 45048U 20006E   25337.22013314  .00066053  00000+0  21351-2 0  9998,2 45048  53.0374 332.6573 0005216 295.3463  64.6996 15.31482468322302
STARLINK-1156,45054,53.0551,0.0001489,15.06394344,546.1977058364628,548.2600797993427,1 45054U 20006L   25337.33054545  .00001436  00000+0  11530-3 0  9991,2 45054  53.0551 359.1915 0001489  92.3287 267.7872 15.06394344321931
STARLINK-1159,45057,53.0544,0.0006071,15.55609255,396.2669393298347,404.4974173161545,1 45057U 20006P   25337.91670139  .00191995  00000+0  26902-2 0  9999,2 45057  53.0544 346.1394 0006071  38.7113  93.9430 15.55609255  5917
STARLINK-1166,45060,53.0567,0.0001412,15.06395965,546.2460636971737,548.2017856222983,1 45060U 20006S   25337.75442402  .00000414  00000+0  46711-4 0  9992,2 45060  53.0567 357.2885 0001412  91.9468 268.1683 15.06395965322006
STARLINK-1169,45061,53.0549,0.0001256,15.06393903,546.3604183022753,548.1000705540755,1 45061U 20006T   25337.76178806 -.00001077  00000+0 -53416-4 0  9996,2 45061  53.0549 357.2579 0001256  86.7890 273.3243 15.06393903322004
STARLINK-1171,45062,53.0534,0.0010492,15.38286231,444.0115508835497,458.3421831020478,1 45062U 20006U   25337.91670139  .00148914  00000+0  38176-2 0  9994,2 45062  53.0534 347.4032 0010492  26.5107 188.7854 15.38286231  5914
STARLINK-1133,45064,53.0563,0.000135,15.06395965,546.2890009349067,548.1588483845644,1 45064U 20006W   25337.42821661  .00001201  00000+0  99549-4 0  9990,2 45064  53.0563 338.7534 0001350  95.6954 264.4189 15.06395965322238
STARLINK-1167,45071,53.0559,0.0001544,15.06400312,546.1413280336756,548.2798753730813,1 45071U 20006AD  25337.71940488  .00001983  00000+0  15200-3 0  9997,2 45071  53.0559 337.4450 0001544  87.9542 272.1623 15.06400312322272
STARLINK-1168,45072,53.0568,0.0001586,15.06397089,546.1221180520961,548.3188414446731,1 45072U 20006AE  25337.72309192  .00001409  00000+0  11348-3 0  9992,2 45072  53.0568 337.4283 0001586  87.1986 272.9184 15.06397089322273
STARLINK-1172,45074,53.055,0.0001484,15.06390495,546.2129634983548,548.2684155966135,1 45074U 20006AG  25337.33607360  .00000498  00000+0  52324-4 0  9996,2 45074  53.0550 339.1682 0001484  95.4826 264.6332 15.06390495322211
STARLINK-1153,45080,53.0552,0.000137,15.063992,546.265236735795,548.1627829124882,1 45080U 20006AN  25337.71203359  .00001713  00000+0  13385-3 0  9999,2 45080  53.0552 337.4791 0001370  91.2138 268.9008 15.06399200322272
STARLINK-1151,45081,53.0545,0.0002125,15.10054228,534.565205452941,537.5037283263691,1 45081U 20006AP  25337.41614749  .00007503  00000+0  47315-3 0  9999,2 45081  53.0545 338.7191 0002125  99.4675 260.6556 15.10054228322234
STARLINK-1185,45087,53.0551,0.0001643,15.06387873,546.1108848212798,548.3865665707444,1 45087U 20006AV  25337.20890345 -.00001371  00000+0 -73204-4 0  9996,2 45087  53.0551 319.7361 0001643  90.6464 269.4714 15.06387873322488
